OBJECT_NAME,OBJECT_ID,EPOCH,MEAN_MOTION,ECCENTRICITY,INCLINATION,RA_OF_ASC_NODE,ARG_OF_PERICENTER,MEAN_ANOMALY,EPHEMERIS_TYPE,CLASSIFICATION_TYPE,NORAD_CAT_ID,ELEMENT_SET_NO,REV_AT_EPOCH,BSTAR,MEAN_MOTION_DOT,MEAN_MOTION_DDOT
STARLINK-37136,2026-059AC,2026-06-13T14:14:50.489088,15.30190936,.0001635,53.1611,262.4573,88.1114,272.0074,0,U,68347,999,1286,.57719E-3,.16769E-3,0
STARLINK-37182,2026-059AD,2026-06-13T12:35:35.106432,15.34378313,.00012256,53.1603,258.4759,63.6821,296.4307,0,U,68348,999,1291,.75504083E-3,.25202E-3,0
STARLINK-37183,2026-059AE,2026-06-13T14:10:17.154048,15.30195325,.0001222,53.1591,262.4381,87.5879,272.5262,0,U,68349,999,1286,.73978E-3,.21612E-3,0
CENTISPACE-2 S1,2026-060A,2026-06-13T20:28:09.633792,14.65036342,.0007839,54.9820,50.5163,273.4460,86.5638,0,U,68350,999,1226,.73265E-4,.204E-5,0
CENTISPACE-2 S2,2026-060B,2026-06-13T20:59:44.604384,14.63739922,.0006508,54.9816,50.6330,284.2995,75.7277,0,U,68351,999,1226,.95801E-4,.314E-5,0
CENTISPACE-2 S3,2026-060C,2026-06-13T20:06:54.957312,14.65246870,.0011381,54.9812,50.4320,287.6379,72.3373,0,U,68352,999,1226,.2142E-3,.971E-5,0
CENTISPACE-2 S4,2026-060D,2026-06-13T20:22:18.473952,14.64243575,.0013206,54.9841,50.5075,289.7160,70.2410,0,U,68353,999,1226,.24172E-3,.1093E-4,0
CENTISPACE-2 S5,2026-060E,2026-06-13T20:07:43.023360,14.64522956,.0010938,54.9768,50.3946,287.7020,72.2780,0,U,68354,999,1226,.17477E-3,.743E-5,0
CENTISPACE-2 S6,2026-060F,2026-06-13T20:28:14.949120,14.63999121,.0015675,54.9765,50.4718,291.2800,68.6520,0,U,68355,999,1226,.93075E-4,.3E-5,0
CENTISPACE-2 S7,2026-060G,2026-06-13T19:56:34.831680,14.64779047,.001623,54.9869,50.4363,294.4682,65.4619,0,U,68356,999,1226,.14753E-4,-.114E-5,0
CENTISPACE-2 S8,2026-060H,2026-06-13T19:58:06.477888,14.65163815,.0011786,54.9861,50.4364,290.3008,69.6720,0,U,68357,999,1226,.19441E-3,.861E-5,0
CENTISPACE-2 S9,2026-060J,2026-06-13T20:28:54.613632,14.63983827,.0013349,54.9816,50.5141,289.4664,70.4888,0,U,68358,999,1226,.25285E-3,.1145E-4,0
CENTISPACE-2 S10,2026-060K,2026-06-13T20:00:54.789408,14.64201091,.0011892,54.9787,50.3910,288.7668,71.2036,0,U,68359,999,1226,.17231E-3,.723E-5,0
RASSVET-3 1,2026-061A,2026-06-13T20:08:16.238112,15.70978874,.0007637,82.2923,16.0392,131.3006,228.8914,0,U,68360,999,1302,-.5297E-2,-.615811E-2,0
RASSVET-3 2,2026-061B,2026-06-13T20:09:58.986720,15.70015275,.0007551,82.2923,15.8862,153.4931,206.6718,0,U,68361,999,1303,-.35728E-2,-.408624E-2,0
RASSVET-3 3,2026-061C,2026-06-13T07:12:32.230656,15.26243352,.00096836,82.2957,18.0450,28.0785,332.0973,0,U,68362,999,1285,-.25946275E-1,-.626337E-2,0
RASSVET-3 5,2026-061E,2026-06-13T19:52:29.566272,15.14206127,.0011023,82.2963,18.3240,54.1922,306.0331,0,U,68364,999,1288,-.23068E-1,-.399049E-2,0
RASSVET-3 6,2026-061F,2026-06-13T19:45:12.238848,15.22494362,.0008749,82.2941,17.9870,352.8226,7.2883,0,U,68365,999,1290,-.1969E-1,-.430503E-2,0
RASSVET-3 7,2026-061G,2026-06-13T07:30:06.146496,15.27779588,.00095695,82.2946,17.8986,148.3770,211.8046,0,U,68366,999,1286,-.28269277E-1,-.708478E-2,0
RASSVET-3 8,2026-061H,2026-06-13T20:46:06.284064,15.68434716,.0008123,82.2937,15.9285,125.3003,234.9018,0,U,68367,999,1303,-.5691E-2,-.596864E-2,0
RASSVET-3 9,2026-061J,2026-06-13T20:01:56.970624,15.69104893,.0009521,82.2949,16.2126,128.6198,231.5917,0,U,68368,999,1301,-.54492E-2,-.588626E-2,0
RASSVET-3 10,2026-061K,2026-06-13T21:04:20.272224,15.97362190,.0010035,82.2906,15.2764,145.3072,214.8861,0,U,68369,999,1307,.37328E-3,.164493E-2,.93245E-5
RASSVET-3 11,2026-061L,2026-06-13T20:43:05.755584,15.74583693,.000863,82.2939,15.7583,169.1839,190.9612,0,U,68370,999,1304,.22984E-4,.3412E-4,0
RASSVET-3 12,2026-061M,2026-06-13T08:06:56.263680,15.16419726,.00096473,82.2938,18.4148,214.6946,145.3659,0,U,68371,999,1283,-.27478247E-1,-.499161E-2,0
RASSVET-3 13,2026-061N,2026-06-13T21:03:30.893760,15.35920477,.0010344,82.2965,18.0793,113.2813,246.9520,0,U,68372,999,1290,-.49531E-2,-.169354E-2,0
RASSVET-3 14,2026-061P,2026-06-13T03:19:54.631200,15.78383528,.000797,82.3104,16.6441,140.4753,219.7095,0,U,68373,999,1292,.46869E-3,.8137E-3,0
RASSVET-3 15,2026-061Q,2026-06-13T15:07:28.547328,15.70457505,.0001466,82.2952,16.4125,126.0266,234.1131,0,U,68374,999,1298,-.1124E-2,-.134857E-2,0
RASSVET-3 16,2026-061R,2026-06-13T19:38:24.015264,15.70220858,.0011496,82.2942,16.5130,233.5067,126.5136,0,U,68375,999,1299,-.2878E-2,-.335679E-2,0
SUPERVIEW NEO-2 05,2026-062A,2026-06-13T11:06:52.380000,15.19721951,.00017741,97.4370,171.8233,123.0655,237.0751,0,U,68377,999,1208,.95791764E-4,.1978E-4,0
SUPERVIEW NEO-2 06,2026-062B,2026-06-13T11:06:52.412832,15.19725337,.00016722,97.4420,171.8192,103.6950,256.4472,0,U,68378,999,1208,.10620836E-3,.2201E-4,0
STARLINK-36296,2026-063A,2026-06-13T20:00:01.999008,15.49110063,.0000878,97.2853,309.4659,107.4273,222.4564,0,U,68380,999,599,.26552E-2,.146635E-2,0
STARLINK-37111,2026-063B,2026-06-13T08:42:52.738560,15.33459925,.00005586,97.2844,306.6008,88.8421,271.2885,0,U,68381,999,1255,.7956497E-3,.25711E-3,0
STARLINK-36946,2026-063C,2026-06-13T20:19:49.286208,15.33437067,.0001352,97.2831,307.1624,78.4959,281.6435,0,U,68382,999,1263,.671E-3,.21644E-3,0
STARLINK-37121,2026-063D,2026-06-13T11:58:38.748576,15.33452837,.00002494,97.2848,306.7203,97.9702,262.1569,0,U,68383,999,1257,.67831784E-3,.21892E-3,0
STARLINK-37137,2026-063E,2026-06-13T20:15:53.316576,15.33449672,.0000622,97.2858,307.1628,233.4332,126.6853,0,U,68384,999,1263,.67296E-3,.21716E-3,0
STARLINK-37128,2026-063F,2026-06-13T20:51:07.903008,15.33453206,.0000479,97.2881,307.1322,112.4886,247.6407,0,U,68385,999,1263,.73709E-3,.23802E-3,0
STARLINK-37198,2026-063G,2026-06-13T19:56:18.990240,15.33454055,.0000107,97.2868,307.1840,42.9575,317.1676,0,U,68386,999,1263,.78718E-3,.25431E-3,0
STARLINK-37223,2026-063H,2026-06-13T20:47:12.814656,15.33457495,.0000343,97.2846,307.1333,70.1771,289.9509,0,U,68387,999,1263,.57915E-3,.18676E-3,0
STARLINK-37203,2026-063J,2026-06-13T20:23:43.200384,15.33427669,.0000706,97.2861,307.1590,92.0638,268.0685,0,U,68388,999,1263,.50724E-3,.16327E-3,0
STARLINK-37197,2026-063K,2026-06-13T20:08:03.640992,15.33454320,.0000404,97.2873,307.1715,236.9752,123.1452,0,U,68389,999,1263,.80423E-3,.25985E-3,0
STARLINK-37193,2026-063L,2026-06-13T20:40:14.421792,15.49221775,.0000791,97.2839,309.7446,94.3146,265.8195,0,U,68390,999,1280,.73912E-3,.4036E-3,0
STARLINK-37216,2026-063M,2026-06-13T21:02:52.889856,15.33452767,.0000864,97.2859,307.1225,89.8670,270.2672,0,U,68391,999,1263,.88397E-3,.28578E-3,0
STARLINK-37215,2026-063N,2026-06-13T20:55:03.208224,15.33449714,.0001021,97.2861,307.1261,246.0671,114.0465,0,U,68392,999,1263,.81074E-3,.26193E-3,0
STARLINK-37184,2026-063P,2026-06-13T20:31:34.339584,15.33482997,.0000744,97.2869,307.1498,60.2396,299.8921,0,U,68393,999,1263,.10313E-2,.33407E-3,0
STARLINK-37157,2026-063Q,2026-06-13T20:00:13.770144,15.33457718,.0000535,97.2856,307.1830,249.3703,110.7482,0,U,68394,999,1263,.94475E-3,.3056E-3,0
STARLINK-37172,2026-063R,2026-06-13T08:46:47.972064,15.33448110,.00008217,97.2846,306.5953,77.7717,282.3618,0,U,68395,999,1255,.73490416E-3,.23727E-3,0
STARLINK-37190,2026-063S,2026-06-13T20:11:58.172928,15.33459795,.0000477,97.2880,307.1703,259.8273,100.2916,0,U,68396,999,1263,.74047E-3,.23917E-3,0
STARLINK-37194,2026-063T,2026-06-13T20:43:19.016256,15.33469232,.0000652,97.2864,307.1413,133.0060,227.1237,0,U,68397,999,1263,.57568E-3,.1857E-3,0
STARLINK-37220,2026-063U,2026-06-13T20:58:57.747072,15.33454092,.0000755,97.2860,307.1265,58.3949,301.7367,0,U,68398,999,1263,.92886E-3,.3004E-3,0
STARLINK-37187,2026-063V,2026-06-13T19:52:24.121344,15.33457313,.0000529,97.2867,307.1876,44.4111,315.7174,0,U,68399,999,1263,.70175E-3,.22657E-3,0
STARLINK-36235,2026-063W,2026-06-13T20:35:30.416352,15.33437616,.000068,97.2874,307.1503,82.0308,278.1011,0,U,68400,999,1263,.97793E-3,.31621E-3,0
STARLINK-37175,2026-063X,2026-06-13T08:38:58.261920,15.33451480,.00012076,97.2849,306.5991,79.3540,280.7838,0,U,68401,999,1255,.81027255E-3,.2618E-3,0
STARLINK-36360,2026-063Y,2026-06-13T20:39:23.006880,15.33460500,.0000533,97.2869,307.1482,132.3445,227.7842,0,U,68402,999,1263,.83994E-3,.27152E-3,0
STARLINK-37218,2026-063Z,2026-06-13T15:38:11.231232,15.75234187,.0002488,97.2851,309.2590,100.3948,259.7598,0,U,68403,999,1275,.99793E-3,.151692E-2,0
STARLINK-37188,2026-063AA,2026-06-13T20:04:08.635584,15.33454678,.000107,97.2873,307.1804,271.3165,88.7955,0,U,68404,999,1263,.75666E-3,.24439E-3,0
SHIYAN-33,2026-064A,2026-06-13T16:55:29.457120,15.23891941,.0012735,97.4630,240.2433,324.5484,35.4905,0,U,68405,999,1196,.20601E-3,.4911E-4,0
LPNTSAT-001 (IOD-1),2026-065A,2026-06-13T15:36:19.149696,15.18521560,.0017065,97.4027,45.2350,22.6429,337.5555,0,U,68408,999,1172,.14054E-3,.2843E-4,0
LPNTSAT-002 (IOD-2),2026-065B,2026-06-13T15:14:08.684736,15.19202047,.0014414,97.4020,45.2441,19.4520,340.7261,0,U,68409,999,1170,.35616E-3,.745E-4,0
XINZHENGCHENG-01,2026-066A,2026-06-13T15:59:09.211776,14.88405544,.0023303,84.9667,229.9835,265.1356,94.7207,0,U,68412,999,1120,.43533E-4,.435E-5,0
XINZHENGCHENG 01,2026-066C,2026-06-13T15:46:26.016384,14.88623501,.0023882,84.9663,229.9750,265.8670,93.9824,0,U,68414,999,1120,.91089E-4,.882E-5,0
TIANSHI-01,2026-066D,2026-06-13T15:48:50.069376,14.88680740,.0023088,84.9664,229.9753,264.6760,95.1830,0,U,68415,999,1120,.25023E-3,.2374E-4,0
TRANSPORTER-16 OBJECT A,2026-067A,2026-06-13T20:45:29.257344,15.19445845,.0000421,97.4542,123.4850,358.5418,1.5815,0,U,68416,999,1144,.32001E-3,.6716E-4,0
JACK-002,2026-067B,2026-06-13T20:50:40.242048,15.19358285,.0000597,97.4564,123.5001,11.9931,348.1318,0,U,68417,999,1144,.31564E-3,.6607E-4,0
OPTISAT,2026-067C,2026-06-13T21:06:36.683136,15.18919663,.0001319,97.4581,123.5034,2.5371,357.5869,0,U,68418,999,1144,.16754E-3,.3429E-4,0
FEMTO-1,2026-067D,2026-06-13T19:31:28.528032,15.18882683,.0000333,97.4537,123.3964,46.5720,313.5542,0,U,68419,999,1143,.14991E-3,.3058E-4,0
